{"fetched_at":"2026-07-21T07:06:55.004Z","source":"https://celestrak.org/NORAD/elements/gp.php?NAME=HULIANWANG&FORMAT=JSON","constellation":"guowang","records":[{"OBJECT_NAME":"HULIANWANG DIGUI-140","OBJECT_ID":"2026-007D","EPOCH":"2026-07-20T15:15:32.865120","CLASSIFICATION_TYPE":"U","MEAN_MOTION":13.29326146,"ECCENTRICITY":0.0000837,"INCLINATION":50.0075,"RA_OF_ASC_NODE":326.0768,"ARG_OF_PERICENTER":134.3062,"MEAN_ANOMALY":225.7879,"EPHEMERIS_TYPE":0,"NORAD_CAT_ID":67438,"ELEMENT_SET_NO":999,"REV_AT_EPOCH":2523,"BSTAR":0.00004272,"MEAN_MOTION_DOT":-0.00000104,"MEAN_MOTION_DDOT":0},{"OBJECT_NAME":"HULIANWANG DIGUI-141","OBJECT_ID":"2026-007E","EPOCH":"2026-07-20T09:02:36.316608","CLASSIFICATION_TYPE":"U","MEAN_MOTION":13.29327022,"ECCENTRICITY":0.00008579,"INCLINATION":50.0066,"RA_OF_ASC_NODE":326.701,"ARG_OF_PERICENTER":132.9897,"MEAN_ANOMALY":227.1047,"EPHEMERIS_TYPE":0,"NORAD_CAT_ID":67439,"ELEMENT_SET_NO":999,"REV_AT_EPOCH":2520,"BSTAR":0.000041051343,"MEAN_MOTION_DOT":-0.00000105,"MEAN_MOTION_DDOT":0},{"OBJECT_NAME":"HULIANWANG DIGUI-142","OBJECT_ID":"2026-007F","EPOCH":"2026-07-20T14:15:23.959584","CLASSIFICATION_TYPE":"U","MEAN_MOTION":13.2932685,"ECCENTRICITY":0.0000859,"INCLINATION":50.0141,"RA_OF_ASC_NODE":325.9672,"ARG_OF_PERICENTER":136.2387,"MEAN_ANOMALY":223.8554,"EPHEMERIS_TYPE":0,"NORAD_CAT_ID":67440,"ELEMENT_SET_NO":999,"REV_AT_EPOCH":2523,"BSTAR":0.000047262,"MEAN_MOTION_DOT":-0.00000102,"MEAN_MOTION_DDOT":0},{"OBJECT_NAME":"HULIANWANG DIGUI-143","OBJECT_ID":"2026-007G","EPOCH":"2026-07-20T06:50:24.500256","CLASSIFICATION_TYPE":"U","MEAN_MOTION":13.29325152,"ECCENTRICITY":0.00007192,"INCLINATION":50.012,"RA_OF_ASC_NODE":326.9727,"ARG_OF_PERICENTER":137.5951,"MEAN_ANOMALY":222.4977,"EPHEMERIS_TYPE":0,"NORAD_CAT_ID":67441,"ELEMENT_SET_NO":999,"REV_AT_EPOCH":2519,"BSTAR":0.000038957354,"MEAN_MOTION_DOT":-0.00000106,"MEAN_MOTION_DDOT":0},{"OBJECT_NAME":"HULIANWANG DIGUI-144","OBJECT_ID":"2026-007H","EPOCH":"2026-07-20T15:39:22.568256","CLASSIFICATION_TYPE":"U","MEAN_MOTION":13.29329368,"ECCENTRICITY":0.0000865,"INCLINATION":50.0109,"RA_OF_ASC_NODE":325.5646,"ARG_OF_PERICENTER":139.4436,"MEAN_ANOMALY":220.65,"EPHEMERIS_TYPE":0,"NORAD_CAT_ID":67442,"ELEMENT_SET_NO":999,"REV_AT_EPOCH":2524,"BSTAR":0.000035382998,"MEAN_MOTION_DOT":-0.00000108,"MEAN_MOTION_DDOT":0},{"OBJECT_NAME":"HULIANWANG DIGUI-145","OBJECT_ID":"2026-007J","EPOCH":"2026-07-20T15:27:38.350368","CLASSIFICATION_TYPE":"U","MEAN_MOTION":13.29325907,"ECCENTRICITY":0.0000811,"INCLINATION":50.0113,"RA_OF_ASC_NODE":325.5281,"ARG_OF_PERICENTER":136.0186,"MEAN_ANOMALY":224.0751,"EPHEMERIS_TYPE":0,"NORAD_CAT_ID":67443,"ELEMENT_SET_NO":999,"REV_AT_EPOCH":2524,"BSTAR":0.000036889926,"MEAN_MOTION_DOT":-0.00000107,"MEAN_MOTION_DDOT":0},{"OBJECT_NAME":"HULIANWANG DIGUI-146","OBJECT_ID":"2026-013A","EPOCH":"2026-07-20T09:19:07.069728","CLASSIFICATION_TYPE":"U","MEAN_MOTION":13.29325404,"ECCENTRICITY":0.00013588,"INCLINATION":50.0061,"RA_OF_ASC_NODE":236.8323,"ARG_OF_PERICENTER":238.763,"MEAN_ANOMALY":121.311,"EPHEMERIS_TYPE":0,"NORAD_CAT_ID":67522,"ELEMENT_SET_NO":999,"REV_AT_EPOCH":2446,"BSTAR":0.000047814267,"MEAN_MOTION_DOT":-0.00000102,"MEAN_MOTION_DDOT":0},{"OBJECT_NAME":"HULIANWANG DIGUI-147","OBJECT_ID":"2026-013B","EPOCH":"2026-07-20T19:56:24.690912","CLASSIFICATION_TYPE":"U","MEAN_MOTION":13.29329048,"ECCENTRICITY":0.00012574,"INCLINATION":50.003,"RA_OF_ASC_NODE":235.1216,"ARG_OF_PERICENTER":241.2968,"MEAN_ANOMALY":118.7778,"EPHEMERIS_TYPE":0,"NORAD_CAT_ID":67523,"ELEMENT_SET_NO":999,"REV_AT_EPOCH":2452,"BSTAR":0.000054232871,"MEAN_MOTION_DOT":-9.9e-7,"MEAN_MOTION_DDOT":0},{"OBJECT_NAME":"HULIANWANG DIGUI-148","OBJECT_ID":"2026-013C","EPOCH":"2026-07-20T08:54:48.140064","CLASSIFICATION_TYPE":"U","MEAN_MOTION":13.29326981,"ECCENTRICITY":0.00012946,"INCLINATION":50.007,"RA_OF_ASC_NODE":236.7599,"ARG_OF_PERICENTER":237.5678,"MEAN_ANOMALY":122.507,"EPHEMERIS_TYPE":0,"NORAD_CAT_ID":67524,"ELEMENT_SET_NO":999,"REV_AT_EPOCH":2446,"BSTAR":0.000057442672,"MEAN_MOTION_DOT":-9.7e-7,"MEAN_MOTION_DDOT":0},{"OBJECT_NAME":"HULIANWANG DIGUI-149","OBJECT_ID":"2026-013D","EPOCH":"2026-07-20T10:31:13.277568","CLASSIFICATION_TYPE":"U","MEAN_MOTION":13.2932886,"ECCENTRICITY":0.0001484,"INCLINATION":50.0077,"RA_OF_ASC_NODE":236.4381,"ARG_OF_PERICENTER":238.6982,"MEAN_ANOMALY":121.3744,"EPHEMERIS_TYPE":0,"NORAD_CAT_ID":67525,"ELEMENT_SET_NO":999,"REV_AT_EPOCH":2447,"BSTAR":0.000010755,"MEAN_MOTION_DOT":-0.00000119,"MEAN_MOTION_DDOT":0},{"OBJECT_NAME":"HULIANWANG DIGUI-150","OBJECT_ID":"2026-013E","EPOCH":"2026-07-20T19:08:30.535296","CLASSIFICATION_TYPE":"U","MEAN_MOTION":13.29324411,"ECCENTRICITY":0.00012383,"INCLINATION":50.0033,"RA_OF_ASC_NODE":234.9433,"ARG_OF_PERICENTER":239.3818,"MEAN_ANOMALY":120.6932,"EPHEMERIS_TYPE":0,"NORAD_CAT_ID":67526,"ELEMENT_SET_NO":999,"REV_AT_EPOCH":2454,"BSTAR":-0.00012020155,"MEAN_MOTION_DOT":-0.0000018,"MEAN_MOTION_DDOT":0},{"OBJECT_NAME":"HULIANWANG DIGUI-151","OBJECT_ID":"2026-013F","EPOCH":"2026-07-20T08:30:55.848384","CLASSIFICATION_TYPE":"U","MEAN_MOTION":13.29326379,"ECCENTRICITY":0.0001298,"INCLINATION":50.0088,"RA_OF_ASC_NODE":236.6724,"ARG_OF_PERICENTER":238.4379,"MEAN_ANOMALY":121.6367,"EPHEMERIS_TYPE":0,"NORAD_CAT_ID":67527,"ELEMENT_SET_NO":999,"REV_AT_EPOCH":2446,"BSTAR":-0.000077359,"MEAN_MOTION_DOT":-0.0000016,"MEAN_MOTION_DDOT":0},{"OBJECT_NAME":"HULIANWANG DIGUI-152","OBJECT_ID":"2026-013G","EPOCH":"2026-07-20T08:06:45.728928","CLASSIFICATION_TYPE":"U","MEAN_MOTION":13.29332785,"ECCENTRICITY":0.0001314,"INCLINATION":50.0019,"RA_OF_ASC_NODE":236.5073,"ARG_OF_PERICENTER":239.6221,"MEAN_ANOMALY":120.4521,"EPHEMERIS_TYPE":0,"NORAD_CAT_ID":67528,"ELEMENT_SET_NO":999,"REV_AT_EPOCH":2446,"BSTAR":0.000036631,"MEAN_MOTION_DOT":-0.00000107,"MEAN_MOTION_DDOT":0},{"OBJECT_NAME":"HULIANWANG DIGUI-153","OBJECT_ID":"2026-013H","EPOCH":"2026-07-20T18:44:27.763296","CLASSIFICATION_TYPE":"U","MEAN_MOTION":13.29324076,"ECCENTRICITY":0.00013216,"INCLINATION":50.0021,"RA_OF_ASC_NODE":234.8496,"ARG_OF_PERICENTER":242.9913,"MEAN_ANOMALY":117.0825,"EPHEMERIS_TYPE":0,"NORAD_CAT_ID":67529,"ELEMENT_SET_NO":999,"REV_AT_EPOCH":2451,"BSTAR":0.00004122716,"MEAN_MOTION_DOT":-0.00000105,"MEAN_MOTION_DDOT":0},{"OBJECT_NAME":"HULIANWANG DIGUI-154","OBJECT_ID":"2026-013J","EPOCH":"2026-07-20T18:32:14.319744","CLASSIFICATION_TYPE":"U","MEAN_MOTION":13.29332482,"ECCENTRICITY":0.00012868,"INCLINATION":50.0044,"RA_OF_ASC_NODE":234.8456,"ARG_OF_PERICENTER":240.9574,"MEAN_ANOMALY":119.1169,"EPHEMERIS_TYPE":0,"NORAD_CAT_ID":67530,"ELEMENT_SET_NO":999,"REV_AT_EPOCH":2451,"BSTAR":0.000045676339,"MEAN_MOTION_DOT":-0.00000103,"MEAN_MOTION_DDOT":0},{"OBJECT_NAME":"HULIANWANG DIGUI-155","OBJECT_ID":"2026-047A","EPOCH":"2026-07-20T12:48:21.470976","CLASSIFICATION_TYPE":"U","MEAN_MOTION":13.29325951,"ECCENTRICITY":0.00010068,"INCLINATION":50.0042,"RA_OF_ASC_NODE":296.7866,"ARG_OF_PERICENTER":219.3258,"MEAN_ANOMALY":140.7541,"EPHEMERIS_TYPE":0,"NORAD_CAT_ID":68129,"ELEMENT_SET_NO":999,"REV_AT_EPOCH":1750,"BSTAR":0.000050971304,"MEAN_MOTION_DOT":-0.000001,"MEAN_MOTION_DDOT":0}]}
